{
  "type": "FeatureCollection",
  "sourceUrl": "https://github.com/nvkelso/natural-earth-vector/blob/master/geojson/ne_50m_lakes.geojson",
  "originalSha256": "d350b75978b26fe839b797c2c529b2fb8f47fb3983c03f4964e36d5df9378a52",
  "license": "Public Domain",
  "features": [
    {
      "type": "Feature",
      "properties": {
        "name": "Hongze Hu"
      },
      "bbox": [
        117.808984,
        32.884766,
        118.860547,
        33.644629
      ],
      "geometry": {
        "type": "Polygon",
        "coordinates": [
          [
            [
              118.604688,
              33.17207
            ],
            [
              118.573535,
              33.14082
            ],
            [
              118.518652,
              33.036328
            ],
            [
              118.491699,
              32.998047
            ],
            [
              118.430762,
              32.972754
            ],
            [
              118.266602,
              32.924805
            ],
            [
              118.227051,
              32.896631
            ],
            [
              118.183203,
              32.884766
            ],
            [
              118.171191,
              32.906152
            ],
            [
              118.191895,
              32.94126
            ],
            [
              118.180859,
              32.971289
            ],
            [
              118.14209,
              32.986133
            ],
            [
              118.088184,
              32.95835
            ],
            [
              118.066211,
              32.935547
            ],
            [
              118.049902,
              32.963818
            ],
            [
              118.08418,
              33.005469
            ],
            [
              118.130176,
              33.027783
            ],
            [
              118.225781,
              32.990576
            ],
            [
              118.240332,
              33.008447
            ],
            [
              118.234277,
              33.046289
            ],
            [
              118.182324,
              33.139355
            ],
            [
              118.102051,
              33.143799
            ],
            [
              117.978516,
              33.142334
            ],
            [
              117.914648,
              33.125977
            ],
            [
              117.891602,
              33.064551
            ],
            [
              117.838184,
              33.038379
            ],
            [
              117.808984,
              33.048096
            ],
            [
              117.851367,
              33.062158
            ],
            [
              117.874414,
              33.093213
            ],
            [
              117.886328,
              33.157178
            ],
            [
              117.911621,
              33.181006
            ],
            [
              117.991504,
              33.187207
            ],
            [
              118.114258,
              33.214697
            ],
            [
              118.174902,
              33.210205
            ],
            [
              118.226562,
              33.142871
            ],
            [
              118.274902,
              33.044775
            ],
            [
              118.340234,
              32.994238
            ],
            [
              118.407227,
              33.009863
            ],
            [
              118.416602,
              33.038184
            ],
            [
              118.439648,
              33.06792
            ],
            [
              118.459863,
              33.098633
            ],
            [
              118.470117,
              33.127783
            ],
            [
              118.454492,
              33.160156
            ],
            [
              118.322168,
              33.182471
            ],
            [
              118.249219,
              33.221143
            ],
            [
              118.23291,
              33.288086
            ],
            [
              118.273047,
              33.267285
            ],
            [
              118.318359,
              33.268359
            ],
            [
              118.391699,
              33.338037
            ],
            [
              118.446484,
              33.406836
            ],
            [
              118.490039,
              33.401465
            ],
            [
              118.57002,
              33.371875
            ],
            [
              118.607129,
              33.376025
            ],
            [
              118.546973,
              33.436914
            ],
            [
              118.487695,
              33.539844
            ],
            [
              118.493066,
              33.622656
            ],
            [
              118.544238,
              33.644629
            ],
            [
              118.571191,
              33.619824
            ],
            [
              118.608398,
              33.514893
            ],
            [
              118.663574,
              33.463086
            ],
            [
              118.774316,
              33.442773
            ],
            [
              118.860547,
              33.356543
            ],
            [
              118.860547,
              33.338672
            ],
            [
              118.833789,
              33.304443
            ],
            [
              118.778223,
              33.176367
            ],
            [
              118.715527,
              33.089307
            ],
            [
              118.680859,
              33.076514
            ],
            [
              118.678418,
              33.12417
            ],
            [
              118.65293,
              33.173828
            ],
            [
              118.604688,
              33.17207
            ],
            [
              118.604688,
              33.17207
            ],
            [
              118.604688,
              33.17207
            ],
            [
              118.604688,
              33.17207
            ]
          ]
        ]
      }
    },
    {
      "type": "Feature",
      "properties": {
        "name": "Qinghai Hu"
      },
      "bbox": [
        99.649902,
        36.556836,
        100.752734,
        37.217822
      ],
      "geometry": {
        "type": "Polygon",
        "coordinates": [
          [
            [
              100.752734,
              36.810889
            ],
            [
              100.745703,
              36.781104
            ],
            [
              100.722656,
              36.74502
            ],
            [
              100.722559,
              36.672803
            ],
            [
              100.704297,
              36.589355
            ],
            [
              100.627539,
              36.556836
            ],
            [
              100.522949,
              36.580176
            ],
            [
              100.430566,
              36.641064
            ],
            [
              100.227734,
              36.644678
            ],
            [
              99.958496,
              36.678711
            ],
            [
              99.827441,
              36.739404
            ],
            [
              99.700391,
              36.853125
            ],
            [
              99.649902,
              36.911279
            ],
            [
              99.680859,
              36.947412
            ],
            [
              99.761621,
              36.948242
            ],
            [
              99.816406,
              36.955371
            ],
            [
              99.834473,
              36.988037
            ],
            [
              99.804297,
              37.066602
            ],
            [
              99.787207,
              37.149023
            ],
            [
              99.836328,
              37.182471
            ],
            [
              99.95625,
              37.217822
            ],
            [
              100.104297,
              37.201562
            ],
            [
              100.274512,
              37.150244
            ],
            [
              100.447852,
              37.025195
            ],
            [
              100.585547,
              36.902637
            ],
            [
              100.752734,
              36.810889
            ],
            [
              100.752734,
              36.810889
            ],
            [
              100.752734,
              36.810889
            ],
            [
              100.752734,
              36.810889
            ]
          ]
        ]
      }
    },
    {
      "type": "Feature",
      "properties": {
        "name": "Tai Hu"
      },
      "bbox": [
        119.939355,
        30.935986,
        120.60166,
        31.531836
      ],
      "geometry": {
        "type": "Polygon",
        "coordinates": [
          [
            [
              120.60166,
              31.087451
            ],
            [
              120.394434,
              30.970605
            ],
            [
              120.236035,
              30.935986
            ],
            [
              120.103223,
              30.973291
            ],
            [
              119.978027,
              31.091064
            ],
            [
              119.939355,
              31.252979
            ],
            [
              119.987402,
              31.391797
            ],
            [
              120.108203,
              31.491797
            ],
            [
              120.218555,
              31.531836
            ],
            [
              120.254395,
              31.509961
            ],
            [
              120.255957,
              31.494922
            ],
            [
              120.251074,
              31.475488
            ],
            [
              120.270898,
              31.444629
            ],
            [
              120.325,
              31.441699
            ],
            [
              120.380371,
              31.429053
            ],
            [
              120.372266,
              31.385693
            ],
            [
              120.331348,
              31.349512
            ],
            [
              120.326465,
              31.319727
            ],
            [
              120.357129,
              31.269824
            ],
            [
              120.391406,
              31.227051
            ],
            [
              120.430664,
              31.200195
            ],
            [
              120.440234,
              31.15332
            ],
            [
              120.394727,
              31.100391
            ],
            [
              120.423047,
              31.083057
            ],
            [
              120.460742,
              31.080811
            ],
            [
              120.539941,
              31.1271
            ],
            [
              120.60166,
              31.087451
            ],
            [
              120.60166,
              31.087451
            ],
            [
              120.60166,
              31.087451
            ]
          ]
        ]
      }
    },
    {
      "type": "Feature",
      "properties": {
        "name": "Poyang Hu"
      },
      "bbox": [
        115.965039,
        28.803809,
        116.708594,
        29.751367
      ],
      "geometry": {
        "type": "Polygon",
        "coordinates": [
          [
            [
              116.705762,
              29.13623
            ],
            [
              116.708594,
              29.102393
            ],
            [
              116.672363,
              29.097607
            ],
            [
              116.634668,
              29.101904
            ],
            [
              116.617773,
              29.115234
            ],
            [
              116.581055,
              29.128271
            ],
            [
              116.521094,
              29.143262
            ],
            [
              116.495508,
              29.122412
            ],
            [
              116.477246,
              29.043018
            ],
            [
              116.503223,
              28.953027
            ],
            [
              116.530078,
              28.894482
            ],
            [
              116.536621,
              28.845459
            ],
            [
              116.511523,
              28.803809
            ],
            [
              116.468457,
              28.805176
            ],
            [
              116.441406,
              28.859521
            ],
            [
              116.418066,
              28.879687
            ],
            [
              116.40918,
              28.905273
            ],
            [
              116.347754,
              28.905713
            ],
            [
              116.329102,
              28.960938
            ],
            [
              116.097266,
              29.105908
            ],
            [
              116.063867,
              29.148877
            ],
            [
              116.047266,
              29.190234
            ],
            [
              115.981836,
              29.279199
            ],
            [
              115.965039,
              29.311377
            ],
            [
              116.001953,
              29.394336
            ],
            [
              116.025977,
              29.45293
            ],
            [
              116.090625,
              29.555273
            ],
            [
              116.11748,
              29.653125
            ],
            [
              116.099609,
              29.687988
            ],
            [
              116.082324,
              29.702539
            ],
            [
              116.113086,
              29.725879
            ],
            [
              116.180469,
              29.751221
            ],
            [
              116.197559,
              29.751367
            ],
            [
              116.229688,
              29.698389
            ],
            [
              116.234766,
              29.665869
            ],
            [
              116.207422,
              29.64502
            ],
            [
              116.198926,
              29.603516
            ],
            [
              116.180664,
              29.572656
            ],
            [
              116.158984,
              29.518848
            ],
            [
              116.144531,
              29.453564
            ],
            [
              116.109766,
              29.426611
            ],
            [
              116.115137,
              29.401855
            ],
            [
              116.142773,
              29.386475
            ],
            [
              116.187891,
              29.382031
            ],
            [
              116.196094,
              29.361572
            ],
            [
              116.152832,
              29.33418
            ],
            [
              116.136621,
              29.309326
            ],
            [
              116.15293,
              29.252588
            ],
            [
              116.310449,
              29.231543
            ],
            [
              116.343359,
              29.23374
            ],
            [
              116.368457,
              29.22251
            ],
            [
              116.358008,
              29.185645
            ],
            [
              116.361914,
              29.15376
            ],
            [
              116.406836,
              29.176221
            ],
            [
              116.439941,
              29.236133
            ],
            [
              116.468652,
              29.250098
            ],
            [
              116.540332,
              29.240234
            ],
            [
              116.603906,
              29.23667
            ],
            [
              116.640137,
              29.23667
            ],
            [
              116.663672,
              29.226123
            ],
            [
              116.66084,
              29.190234
            ],
            [
              116.673535,
              29.158691
            ],
            [
              116.705762,
              29.13623
            ],
            [
              116.705762,
              29.13623
            ],
            [
              116.705762,
              29.13623
            ]
          ]
        ]
      }
    }
  ]
}
