{
  "type": "FeatureCollection",
  "sourceUrl": "https://github.com/nvkelso/natural-earth-vector/blob/master/geojson/ne_50m_lakes.geojson",
  "originalSha256": "d350b75978b26fe839b797c2c529b2fb8f47fb3983c03f4964e36d5df9378a52",
  "license": "Public Domain",
  "retrievedAt": "2026-10-05",
  "features": [
    {
      "type": "Feature",
      "properties": {
        "name": "Lake Balkhash",
        "source": "ne_50m_lakes.geojson"
      },
      "geometry": {
        "type": "Polygon",
        "coordinates": [
          [
            [
              78.99082,
              46.748633
            ],
            [
              78.99082,
              46.748633
            ],
            [
              78.99082,
              46.748633
            ],
            [
              78.99082,
              46.748633
            ],
            [
              79.018848,
              46.768457
            ],
            [
              79.022168,
              46.794922
            ],
            [
              79.051855,
              46.807715
            ],
            [
              79.08418,
              46.810107
            ],
            [
              79.121875,
              46.798828
            ],
            [
              79.176758,
              46.763867
            ],
            [
              79.221973,
              46.72041
            ],
            [
              79.244727,
              46.679688
            ],
            [
              79.245117,
              46.645166
            ],
            [
              79.235547,
              46.633545
            ],
            [
              79.217285,
              46.609717
            ],
            [
              79.157422,
              46.602783
            ],
            [
              79.094922,
              46.581592
            ],
            [
              79.067969,
              46.52583
            ],
            [
              79.022754,
              46.447461
            ],
            [
              78.971094,
              46.406006
            ],
            [
              78.889844,
              46.369922
            ],
            [
              78.787402,
              46.384814
            ],
            [
              78.711328,
              46.396387
            ],
            [
              78.625293,
              46.379834
            ],
            [
              78.544336,
              46.401367
            ],
            [
              78.46543,
              46.392432
            ],
            [
              78.438379,
              46.376855
            ],
            [
              78.435156,
              46.351758
            ],
            [
              78.462109,
              46.312793
            ],
            [
              78.445117,
              46.297168
            ],
            [
              78.408691,
              46.298828
            ],
            [
              78.367383,
              46.338525
            ],
            [
              78.317285,
              46.349854
            ],
            [
              78.233398,
              46.336865
            ],
            [
              78.160645,
              46.318652
            ],
            [
              78.127539,
              46.318652
            ],
            [
              78.075195,
              46.328271
            ],
            [
              78.017578,
              46.342627
            ],
            [
              77.86543,
              46.428662
            ],
            [
              77.81748,
              46.439404
            ],
            [
              77.781152,
              46.422852
            ],
            [
              77.725781,
              46.407129
            ],
            [
              77.652148,
              46.41543
            ],
            [
              77.562598,
              46.435449
            ],
            [
              77.429297,
              46.499658
            ],
            [
              77.355273,
              46.502246
            ],
            [
              77.282031,
              46.472949
            ],
            [
              77.165137,
              46.489014
            ],
            [
              77.103906,
              46.454248
            ],
            [
              77.003613,
              46.463672
            ],
            [
              76.852637,
              46.492285
            ],
            [
              76.741797,
              46.531982
            ],
            [
              76.463965,
              46.541895
            ],
            [
              76.238477,
              46.554883
            ],
            [
              76.17627,
              46.531982
            ],
            [
              76.033301,
              46.51167
            ],
            [
              75.909375,
              46.535742
            ],
            [
              75.866992,
              46.535645
            ],
            [
              75.714551,
              46.516455
            ],
            [
              75.611328,
              46.507178
            ],
            [
              75.557813,
              46.530322
            ],
            [
              75.514844,
              46.566699
            ],
            [
              75.491602,
              46.596484
            ],
            [
              75.490234,
              46.631006
            ],
            [
              75.508203,
              46.636182
            ],
            [
              75.548047,
              46.634473
            ],
            [
              75.562402,
              46.645996
            ],
            [
              75.559766,
              46.652979
            ],
            [
              75.552832,
              46.672559
            ],
            [
              75.50918,
              46.678027
            ],
            [
              75.463281,
              46.670605
            ],
            [
              75.417188,
              46.641113
            ],
            [
              75.404004,
              46.609717
            ],
            [
              75.432129,
              46.541895
            ],
            [
              75.448047,
              46.49834
            ],
            [
              75.405664,
              46.470801
            ],
            [
              75.350098,
              46.469873
            ],
            [
              75.330078,
              46.512695
            ],
            [
              75.304004,
              46.519385
            ],
            [
              75.277734,
              46.514893
            ],
            [
              75.255859,
              46.47417
            ],
            [
              75.24082,
              46.447656
            ],
            [
              75.212207,
              46.426611
            ],
            [
              75.151855,
              46.4375
            ],
            [
              75.121094,
              46.446436
            ],
            [
              75.093164,
              46.460889
            ],
            [
              75.066699,
              46.450977
            ],
            [
              75.0125,
              46.41709
            ],
            [
              74.91123,
              46.404639
            ],
            [
              74.888086,
              46.376562
            ],
            [
              74.856641,
              46.293945
            ],
            [
              74.815234,
              46.215625
            ],
            [
              74.793848,
              46.130273
            ],
            [
              74.771387,
              46.107812
            ],
            [
              74.599219,
              46.022217
            ],
            [
              74.549902,
              46.005908
            ],
            [
              74.369922,
              46.020068
            ],
            [
              74.278027,
              46.004053
            ],
            [
              74.258203,
              45.976709
            ],
            [
              74.253125,
              45.94165
            ],
            [
              74.30332,
              45.789795
            ],
            [
              74.289258,
              45.764697
            ],
            [
              74.250781,
              45.761035
            ],
            [
              74.242871,
              45.75166
            ],
            [
              74.245313,
              45.739502
            ],
            [
              74.310938,
              45.695459
            ],
            [
              74.312695,
              45.670947
            ],
            [
              74.289453,
              45.650635
            ],
            [
              74.230762,
              45.615332
            ],
            [
              74.100586,
              45.536865
            ],
            [
              74.089355,
              45.509082
            ],
            [
              74.082813,
              45.352051
            ],
            [
              74.086523,
              45.343506
            ],
            [
              74.12832,
              45.336865
            ],
            [
              74.150977,
              45.317285
            ],
            [
              74.155664,
              45.270557
            ],
            [
              74.143359,
              45.10293
            ],
            [
              74.135645,
              45.070166
            ],
            [
              74.100977,
              45.058594
            ],
            [
              74.094238,
              45.040088
            ],
            [
              74.119531,
              44.999707
            ],
            [
              74.1,
              44.988916
            ],
            [
              74.056055,
              44.994434
            ],
            [
              74.017188,
              45.012939
            ],
            [
              74.00957,
              45.033789
            ],
            [
              74.015625,
              45.056494
            ],
            [
              73.993359,
              45.112354
            ],
            [
              74.007715,
              45.146533
            ],
            [
              73.999316,
              45.188721
            ],
            [
              73.980664,
              45.204199
            ],
            [
              73.876758,
              45.239258
            ],
            [
              73.839746,
              45.263867
            ],
            [
              73.662695,
              45.435645
            ],
            [
              73.614746,
              45.51333
            ],
            [
              73.465234,
              45.582471
            ],
            [
              73.436719,
              45.609473
            ],
            [
              73.443652,
              45.657031
            ],
            [
              73.494336,
              45.686572
            ],
            [
              73.531836,
              45.73418
            ],
            [
              73.518848,
              45.763037
            ],
            [
              73.451074,
              45.77959
            ],
            [
              73.440039,
              45.805859
            ],
            [
              73.463477,
              45.82627
            ],
            [
              73.488281,
              45.831104
            ],
            [
              73.559863,
              45.816357
            ],
            [
              73.63252,
              45.906738
            ],
            [
              73.715137,
              45.98252
            ],
            [
              73.737109,
              46.012744
            ],
            [
              73.662695,
              46.062354
            ],
            [
              73.654004,
              46.092676
            ],
            [
              73.645508,
              46.15
            ],
            [
              73.679297,
              46.183057
            ],
            [
              73.751953,
              46.202637
            ],
            [
              73.774902,
              46.206494
            ],
            [
              73.829395,
              46.185107
            ],
            [
              73.897559,
              46.207861
            ],
            [
              73.981836,
              46.186377
            ],
            [
              74.020703,
              46.204883
            ],
            [
              74.026953,
              46.222461
            ],
            [
              73.949512,
              46.288379
            ],
            [
              74.023242,
              46.369336
            ],
            [
              74.094336,
              46.427832
            ],
            [
              74.279785,
              46.470215
            ],
            [
              74.374609,
              46.518018
            ],
            [
              74.42998,
              46.578271
            ],
            [
              74.524219,
              46.622949
            ],
            [
              74.553125,
              46.690234
            ],
            [
              74.625391,
              46.7521
            ],
            [
              74.804297,
              46.780566
            ],
            [
              74.939355,
              46.816797
            ],
            [
              74.974023,
              46.814062
            ],
            [
              75.088672,
              46.813623
            ],
            [
              75.162695,
              46.774561
            ],
            [
              75.200586,
              46.758789
            ],
            [
              75.338477,
              46.729932
            ],
            [
              75.426758,
              46.7375
            ],
            [
              75.825879,
              46.818066
            ],
            [
              75.950586,
              46.795117
            ],
            [
              76.203125,
              46.780029
            ],
            [
              76.297656,
              46.752881
            ],
            [
              76.335938,
              46.728613
            ],
            [
              76.405176,
              46.662256
            ],
            [
              76.450488,
              46.640723
            ],
            [
              76.496289,
              46.635547
            ],
            [
              76.6,
              46.6646
            ],
            [
              76.668359,
              46.673389
            ],
            [
              76.699609,
              46.66748
            ],
            [
              76.793066,
              46.630664
            ],
            [
              76.859277,
              46.643848
            ],
            [
              77.082422,
              46.624609
            ],
            [
              77.174805,
              46.555957
            ],
            [
              77.226367,
              46.566699
            ],
            [
              77.266016,
              46.611377
            ],
            [
              77.370313,
              46.622754
            ],
            [
              77.601562,
              46.640039
            ],
            [
              77.644727,
              46.656055
            ],
            [
              77.690039,
              46.658643
            ],
            [
              77.859961,
              46.647852
            ],
            [
              78.136328,
              46.594922
            ],
            [
              78.169336,
              46.580176
            ],
            [
              78.29707,
              46.468555
            ],
            [
              78.324316,
              46.482227
            ],
            [
              78.347852,
              46.512061
            ],
            [
              78.358789,
              46.623437
            ],
            [
              78.367773,
              46.64292
            ],
            [
              78.39707,
              46.657666
            ],
            [
              78.433203,
              46.65249
            ],
            [
              78.451953,
              46.618066
            ],
            [
              78.476465,
              46.624609
            ],
            [
              78.503906,
              46.664697
            ],
            [
              78.551367,
              46.707373
            ],
            [
              78.580566,
              46.723096
            ],
            [
              78.630273,
              46.746973
            ],
            [
              78.760938,
              46.723828
            ],
            [
              78.783887,
              46.734912
            ],
            [
              78.787305,
              46.75498
            ],
            [
              78.793066,
              46.780029
            ],
            [
              78.822949,
              46.794824
            ],
            [
              78.868164,
              46.79873
            ],
            [
              78.92959,
              46.78833
            ],
            [
              78.99082,
              46.748633
            ]
          ]
        ]
      }
    },
    {
      "type": "Feature",
      "properties": {
        "name": "Issyk-Kul",
        "source": "ne_50m_lakes.geojson"
      },
      "geometry": {
        "type": "Polygon",
        "coordinates": [
          [
            [
              78.302637,
              42.588379
            ],
            [
              78.292383,
              42.564062
            ],
            [
              78.158008,
              42.550098
            ],
            [
              78.01416,
              42.487451
            ],
            [
              77.870703,
              42.428271
            ],
            [
              77.851758,
              42.402197
            ],
            [
              77.853906,
              42.36665
            ],
            [
              77.716211,
              42.240381
            ],
            [
              77.59502,
              42.200391
            ],
            [
              77.514551,
              42.181836
            ],
            [
              77.136523,
              42.168164
            ],
            [
              77.022949,
              42.173047
            ],
            [
              76.921484,
              42.19043
            ],
            [
              76.577734,
              42.291357
            ],
            [
              76.432129,
              42.319531
            ],
            [
              76.328711,
              42.32998
            ],
            [
              76.263086,
              42.327588
            ],
            [
              76.227246,
              42.388916
            ],
            [
              76.21543,
              42.435205
            ],
            [
              76.226465,
              42.460596
            ],
            [
              76.452832,
              42.488574
            ],
            [
              76.74707,
              42.565332
            ],
            [
              76.965039,
              42.612256
            ],
            [
              77.190234,
              42.646875
            ],
            [
              77.337402,
              42.669678
            ],
            [
              77.534863,
              42.651318
            ],
            [
              77.684082,
              42.701807
            ],
            [
              78.06377,
              42.72666
            ],
            [
              78.248828,
              42.73374
            ],
            [
              78.151367,
              42.671777
            ],
            [
              78.118945,
              42.641504
            ],
            [
              78.136328,
              42.607666
            ],
            [
              78.302637,
              42.588379
            ],
            [
              78.302637,
              42.588379
            ],
            [
              78.302637,
              42.588379
            ]
          ]
        ]
      }
    },
    {
      "type": "Feature",
      "properties": {
        "name": "Qinghai Hu",
        "source": "ne_50m_lakes.geojson"
      },
      "geometry": {
        "type": "Polygon",
        "coordinates": [
          [
            [
              100.752734,
              36.810889
            ],
            [
              100.745703,
              36.781104
            ],
            [
              100.722656,
              36.74502
            ],
            [
              100.722559,
              36.672803
            ],
            [
              100.704297,
              36.589355
            ],
            [
              100.627539,
              36.556836
            ],
            [
              100.522949,
              36.580176
            ],
            [
              100.430566,
              36.641064
            ],
            [
              100.227734,
              36.644678
            ],
            [
              99.958496,
              36.678711
            ],
            [
              99.827441,
              36.739404
            ],
            [
              99.700391,
              36.853125
            ],
            [
              99.649902,
              36.911279
            ],
            [
              99.680859,
              36.947412
            ],
            [
              99.761621,
              36.948242
            ],
            [
              99.816406,
              36.955371
            ],
            [
              99.834473,
              36.988037
            ],
            [
              99.804297,
              37.066602
            ],
            [
              99.787207,
              37.149023
            ],
            [
              99.836328,
              37.182471
            ],
            [
              99.95625,
              37.217822
            ],
            [
              100.104297,
              37.201562
            ],
            [
              100.274512,
              37.150244
            ],
            [
              100.447852,
              37.025195
            ],
            [
              100.585547,
              36.902637
            ],
            [
              100.752734,
              36.810889
            ],
            [
              100.752734,
              36.810889
            ],
            [
              100.752734,
              36.810889
            ],
            [
              100.752734,
              36.810889
            ]
          ]
        ]
      }
    },
    {
      "type": "Feature",
      "properties": {
        "name": "Lake Khanka",
        "source": "ne_50m_lakes.geojson"
      },
      "geometry": {
        "type": "Polygon",
        "coordinates": [
          [
            [
              132.809766,
              45.051562
            ],
            [
              132.742871,
              44.942676
            ],
            [
              132.613574,
              44.711328
            ],
            [
              132.459668,
              44.612598
            ],
            [
              132.365527,
              44.529443
            ],
            [
              132.275879,
              44.568994
            ],
            [
              132.238477,
              44.606104
            ],
            [
              132.241211,
              44.62998
            ],
            [
              132.168555,
              44.673975
            ],
            [
              132.069043,
              44.742529
            ],
            [
              132.084375,
              44.851367
            ],
            [
              132.108691,
              44.968652
            ],
            [
              132.015137,
              45.074268
            ],
            [
              132.017188,
              45.126611
            ],
            [
              132.00498,
              45.214014
            ],
            [
              132.071094,
              45.286816
            ],
            [
              132.230176,
              45.328418
            ],
            [
              132.401953,
              45.328955
            ],
            [
              132.579492,
              45.29624
            ],
            [
              132.725195,
              45.230078
            ],
            [
              132.808203,
              45.148779
            ],
            [
              132.809766,
              45.051562
            ],
            [
              132.809766,
              45.051562
            ],
            [
              132.809766,
              45.051562
            ],
            [
              132.809766,
              45.051562
            ]
          ]
        ]
      }
    },
    {
      "type": "Feature",
      "properties": {
        "name": "Khövsgöl Nuur",
        "source": "ne_50m_lakes.geojson"
      },
      "geometry": {
        "type": "Polygon",
        "coordinates": [
          [
            [
              100.786816,
              51.396973
            ],
            [
              100.77041,
              51.293213
            ],
            [
              100.748535,
              51.222266
            ],
            [
              100.730273,
              51.138184
            ],
            [
              100.684668,
              51.019336
            ],
            [
              100.688184,
              50.983008
            ],
            [
              100.507227,
              50.808691
            ],
            [
              100.471582,
              50.739062
            ],
            [
              100.445215,
              50.658936
            ],
            [
              100.473437,
              50.625098
            ],
            [
              100.472559,
              50.603223
            ],
            [
              100.444336,
              50.568115
            ],
            [
              100.37002,
              50.53833
            ],
            [
              100.193359,
              50.493799
            ],
            [
              100.179492,
              50.531299
            ],
            [
              100.193848,
              50.594043
            ],
            [
              100.228125,
              50.653857
            ],
            [
              100.247754,
              50.742773
            ],
            [
              100.296191,
              51.108594
            ],
            [
              100.283984,
              51.250391
            ],
            [
              100.356055,
              51.351611
            ],
            [
              100.402148,
              51.39209
            ],
            [
              100.387891,
              51.440576
            ],
            [
              100.379687,
              51.466064
            ],
            [
              100.491211,
              51.555762
            ],
            [
              100.525,
              51.596875
            ],
            [
              100.559277,
              51.610254
            ],
            [
              100.752051,
              51.446777
            ],
            [
              100.786816,
              51.396973
            ],
            [
              100.786816,
              51.396973
            ],
            [
              100.786816,
              51.396973
            ],
            [
              100.786816,
              51.396973
            ]
          ]
        ]
      }
    },
    {
      "type": "Feature",
      "properties": {
        "name": "Hulun Nuur",
        "source": "ne_50m_lakes.geojson"
      },
      "geometry": {
        "type": "Polygon",
        "coordinates": [
          [
            [
              117.228906,
              48.585254
            ],
            [
              117.114258,
              48.561035
            ],
            [
              117.088574,
              48.579102
            ],
            [
              117.105469,
              48.629443
            ],
            [
              117.095508,
              48.704834
            ],
            [
              117.014063,
              48.786426
            ],
            [
              116.988477,
              48.841016
            ],
            [
              117.058789,
              48.906641
            ],
            [
              117.225195,
              49.002539
            ],
            [
              117.389453,
              49.139111
            ],
            [
              117.529004,
              49.269971
            ],
            [
              117.635742,
              49.342139
            ],
            [
              117.690137,
              49.350781
            ],
            [
              117.706934,
              49.321875
            ],
            [
              117.688086,
              49.274268
            ],
            [
              117.686133,
              49.220361
            ],
            [
              117.716211,
              49.180078
            ],
            [
              117.748828,
              49.174365
            ],
            [
              117.776367,
              49.160742
            ],
            [
              117.812109,
              49.125195
            ],
            [
              117.899316,
              49.110254
            ],
            [
              118.007227,
              49.105273
            ],
            [
              118.034668,
              49.071484
            ],
            [
              117.964258,
              49.03501
            ],
            [
              117.875391,
              49.033447
            ],
            [
              117.823828,
              49.05918
            ],
            [
              117.772266,
              49.058789
            ],
            [
              117.732813,
              49.029687
            ],
            [
              117.715918,
              48.986035
            ],
            [
              117.515527,
              48.846484
            ],
            [
              117.327637,
              48.694238
            ],
            [
              117.309766,
              48.636035
            ],
            [
              117.228906,
              48.585254
            ],
            [
              117.228906,
              48.585254
            ],
            [
              117.228906,
              48.585254
            ]
          ]
        ]
      }
    },
    {
      "type": "Feature",
      "properties": {
        "name": "Uvs Nuur",
        "source": "ne_50m_lakes.geojson"
      },
      "geometry": {
        "type": "Polygon",
        "coordinates": [
          [
            [
              92.316406,
              50.30166
            ],
            [
              92.235449,
              50.412988
            ],
            [
              92.348242,
              50.475049
            ],
            [
              92.545898,
              50.540332
            ],
            [
              92.789453,
              50.616943
            ],
            [
              92.892773,
              50.658252
            ],
            [
              92.964648,
              50.638232
            ],
            [
              92.990234,
              50.607959
            ],
            [
              92.977734,
              50.539551
            ],
            [
              93.075879,
              50.427686
            ],
            [
              93.227441,
              50.364062
            ],
            [
              93.25918,
              50.358203
            ],
            [
              93.254199,
              50.327344
            ],
            [
              93.325391,
              50.30835
            ],
            [
              93.361816,
              50.281592
            ],
            [
              93.300586,
              50.25542
            ],
            [
              93.21582,
              50.251123
            ],
            [
              93.095215,
              50.19834
            ],
            [
              93.018359,
              50.14502
            ],
            [
              92.912793,
              50.055908
            ],
            [
              92.72168,
              50.009961
            ],
            [
              92.601367,
              50.005225
            ],
            [
              92.49834,
              50.053174
            ],
            [
              92.381738,
              50.141895
            ],
            [
              92.336523,
              50.227588
            ],
            [
              92.316406,
              50.30166
            ],
            [
              92.316406,
              50.30166
            ],
            [
              92.316406,
              50.30166
            ],
            [
              92.316406,
              50.30166
            ]
          ]
        ]
      }
    },
    {
      "type": "Feature",
      "properties": {
        "name": "Lake Zaysan",
        "source": "ne_50m_lakes.geojson"
      },
      "geometry": {
        "type": "Polygon",
        "coordinates": [
          [
            [
              84.515625,
              47.929883
            ],
            [
              84.42666,
              47.856885
            ],
            [
              84.394336,
              47.816162
            ],
            [
              84.356836,
              47.732129
            ],
            [
              84.295996,
              47.699121
            ],
            [
              84.241797,
              47.706445
            ],
            [
              83.994336,
              47.843262
            ],
            [
              83.765625,
              47.951172
            ],
            [
              83.624609,
              48.012793
            ],
            [
              83.444531,
              48.048828
            ],
            [
              83.258984,
              48.094629
            ],
            [
              83.082617,
              48.178223
            ],
            [
              83.026758,
              48.211865
            ],
            [
              83.038574,
              48.249609
            ],
            [
              83.182129,
              48.249365
            ],
            [
              83.275098,
              48.261328
            ],
            [
              83.435254,
              48.269971
            ],
            [
              83.497559,
              48.304541
            ],
            [
              83.532617,
              48.375146
            ],
            [
              83.460742,
              48.432275
            ],
            [
              83.392188,
              48.499854
            ],
            [
              83.387012,
              48.554004
            ],
            [
              83.417383,
              48.597461
            ],
            [
              83.422656,
              48.743213
            ],
            [
              83.471191,
              48.858203
            ],
            [
              83.589453,
              48.962402
            ],
            [
              83.747266,
              49.039258
            ],
            [
              83.87168,
              49.062695
            ],
            [
              84.036133,
              49.110596
            ],
            [
              84.120605,
              49.159082
            ],
            [
              84.099805,
              49.238037
            ],
            [
              83.972461,
              49.328809
            ],
            [
              83.848535,
              49.41709
            ],
            [
              83.724414,
              49.439551
            ],
            [
              83.660352,
              49.44292
            ],
            [
              83.608008,
              49.48623
            ],
            [
              83.538965,
              49.531885
            ],
            [
              83.478906,
              49.538232
            ],
            [
              83.426465,
              49.573389
            ],
            [
              83.364844,
              49.626074
            ],
            [
              83.363672,
              49.643848
            ],
            [
              83.391211,
              49.652393
            ],
            [
              83.608203,
              49.60625
            ],
            [
              83.739844,
              49.630957
            ],
            [
              83.889844,
              49.72041
            ],
            [
              83.963574,
              49.726367
            ],
            [
              83.96123,
              49.702637
            ],
            [
              83.818262,
              49.633643
            ],
            [
              83.79668,
              49.597119
            ],
            [
              83.756543,
              49.564355
            ],
            [
              83.729492,
              49.535205
            ],
            [
              83.823145,
              49.483936
            ],
            [
              84.287793,
              49.237695
            ],
            [
              84.360645,
              49.160547
            ],
            [
              84.328613,
              49.124854
            ],
            [
              84.149023,
              49.086035
            ],
            [
              83.864062,
              48.994385
            ],
            [
              83.776758,
              48.975391
            ],
            [
              83.60918,
              48.9104
            ],
            [
              83.514063,
              48.81333
            ],
            [
              83.486914,
              48.718262
            ],
            [
              83.516797,
              48.616846
            ],
            [
              83.613379,
              48.437256
            ],
            [
              83.773926,
              48.410449
            ],
            [
              83.919434,
              48.397217
            ],
            [
              83.907129,
              48.373535
            ],
            [
              83.681934,
              48.353418
            ],
            [
              83.596191,
              48.303027
            ],
            [
              83.58125,
              48.26748
            ],
            [
              83.633594,
              48.241504
            ],
            [
              83.740039,
              48.197656
            ],
            [
              83.880664,
              48.151904
            ],
            [
              84.051465,
              48.083496
            ],
            [
              84.16709,
              48.055957
            ],
            [
              84.333887,
              48.023096
            ],
            [
              84.468359,
              47.969385
            ],
            [
              84.515625,
              47.929883
            ],
            [
              84.515625,
              47.929883
            ],
            [
              84.515625,
              47.929883
            ],
            [
              84.515625,
              47.929883
            ]
          ]
        ]
      }
    },
    {
      "type": "Feature",
      "properties": {
        "name": "Tai Hu",
        "source": "ne_50m_lakes.geojson"
      },
      "geometry": {
        "type": "Polygon",
        "coordinates": [
          [
            [
              120.60166,
              31.087451
            ],
            [
              120.394434,
              30.970605
            ],
            [
              120.236035,
              30.935986
            ],
            [
              120.103223,
              30.973291
            ],
            [
              119.978027,
              31.091064
            ],
            [
              119.939355,
              31.252979
            ],
            [
              119.987402,
              31.391797
            ],
            [
              120.108203,
              31.491797
            ],
            [
              120.218555,
              31.531836
            ],
            [
              120.254395,
              31.509961
            ],
            [
              120.255957,
              31.494922
            ],
            [
              120.251074,
              31.475488
            ],
            [
              120.270898,
              31.444629
            ],
            [
              120.325,
              31.441699
            ],
            [
              120.380371,
              31.429053
            ],
            [
              120.372266,
              31.385693
            ],
            [
              120.331348,
              31.349512
            ],
            [
              120.326465,
              31.319727
            ],
            [
              120.357129,
              31.269824
            ],
            [
              120.391406,
              31.227051
            ],
            [
              120.430664,
              31.200195
            ],
            [
              120.440234,
              31.15332
            ],
            [
              120.394727,
              31.100391
            ],
            [
              120.423047,
              31.083057
            ],
            [
              120.460742,
              31.080811
            ],
            [
              120.539941,
              31.1271
            ],
            [
              120.60166,
              31.087451
            ],
            [
              120.60166,
              31.087451
            ],
            [
              120.60166,
              31.087451
            ]
          ]
        ]
      }
    },
    {
      "type": "Feature",
      "properties": {
        "name": "Hongze Hu",
        "source": "ne_50m_lakes.geojson"
      },
      "geometry": {
        "type": "Polygon",
        "coordinates": [
          [
            [
              118.604688,
              33.17207
            ],
            [
              118.573535,
              33.14082
            ],
            [
              118.518652,
              33.036328
            ],
            [
              118.491699,
              32.998047
            ],
            [
              118.430762,
              32.972754
            ],
            [
              118.266602,
              32.924805
            ],
            [
              118.227051,
              32.896631
            ],
            [
              118.183203,
              32.884766
            ],
            [
              118.171191,
              32.906152
            ],
            [
              118.191895,
              32.94126
            ],
            [
              118.180859,
              32.971289
            ],
            [
              118.14209,
              32.986133
            ],
            [
              118.088184,
              32.95835
            ],
            [
              118.066211,
              32.935547
            ],
            [
              118.049902,
              32.963818
            ],
            [
              118.08418,
              33.005469
            ],
            [
              118.130176,
              33.027783
            ],
            [
              118.225781,
              32.990576
            ],
            [
              118.240332,
              33.008447
            ],
            [
              118.234277,
              33.046289
            ],
            [
              118.182324,
              33.139355
            ],
            [
              118.102051,
              33.143799
            ],
            [
              117.978516,
              33.142334
            ],
            [
              117.914648,
              33.125977
            ],
            [
              117.891602,
              33.064551
            ],
            [
              117.838184,
              33.038379
            ],
            [
              117.808984,
              33.048096
            ],
            [
              117.851367,
              33.062158
            ],
            [
              117.874414,
              33.093213
            ],
            [
              117.886328,
              33.157178
            ],
            [
              117.911621,
              33.181006
            ],
            [
              117.991504,
              33.187207
            ],
            [
              118.114258,
              33.214697
            ],
            [
              118.174902,
              33.210205
            ],
            [
              118.226562,
              33.142871
            ],
            [
              118.274902,
              33.044775
            ],
            [
              118.340234,
              32.994238
            ],
            [
              118.407227,
              33.009863
            ],
            [
              118.416602,
              33.038184
            ],
            [
              118.439648,
              33.06792
            ],
            [
              118.459863,
              33.098633
            ],
            [
              118.470117,
              33.127783
            ],
            [
              118.454492,
              33.160156
            ],
            [
              118.322168,
              33.182471
            ],
            [
              118.249219,
              33.221143
            ],
            [
              118.23291,
              33.288086
            ],
            [
              118.273047,
              33.267285
            ],
            [
              118.318359,
              33.268359
            ],
            [
              118.391699,
              33.338037
            ],
            [
              118.446484,
              33.406836
            ],
            [
              118.490039,
              33.401465
            ],
            [
              118.57002,
              33.371875
            ],
            [
              118.607129,
              33.376025
            ],
            [
              118.546973,
              33.436914
            ],
            [
              118.487695,
              33.539844
            ],
            [
              118.493066,
              33.622656
            ],
            [
              118.544238,
              33.644629
            ],
            [
              118.571191,
              33.619824
            ],
            [
              118.608398,
              33.514893
            ],
            [
              118.663574,
              33.463086
            ],
            [
              118.774316,
              33.442773
            ],
            [
              118.860547,
              33.356543
            ],
            [
              118.860547,
              33.338672
            ],
            [
              118.833789,
              33.304443
            ],
            [
              118.778223,
              33.176367
            ],
            [
              118.715527,
              33.089307
            ],
            [
              118.680859,
              33.076514
            ],
            [
              118.678418,
              33.12417
            ],
            [
              118.65293,
              33.173828
            ],
            [
              118.604688,
              33.17207
            ],
            [
              118.604688,
              33.17207
            ],
            [
              118.604688,
              33.17207
            ],
            [
              118.604688,
              33.17207
            ]
          ]
        ]
      }
    }
  ]
}
